[{"OBJECT_NAME":"VIGORIDE-3","OBJECT_ID":"2022-057AE","EPOCH":"2026-03-09T22:06:57.048768","MEAN_MOTION":15.2610122,"ECCENTRICITY":0.00097778,"INCLINATION":97.6431,"RA_OF_ASC_NODE":206.4459,"ARG_OF_PERICENTER":111.2279,"MEAN_ANOMALY":249.0004,"EPHEMERIS_TYPE":0,"CLASSIFICATION_TYPE":"U","NORAD_CAT_ID":52760,"ELEMENT_SET_NO":999,"REV_AT_EPOCH":21001,"BSTAR":0.00033325795,"MEAN_MOTION_DOT":8.532e-5,"MEAN_MOTION_DDOT":0},{"OBJECT_NAME":"STARLINK-30092","OBJECT_ID":"2023-107L","EPOCH":"2026-03-09T02:06:44.569440","MEAN_MOTION":15.26757276,"ECCENTRICITY":0.00023812,"INCLINATION":43.0022,"RA_OF_ASC_NODE":339.6211,"ARG_OF_PERICENTER":265.1319,"MEAN_ANOMALY":94.926,"EPHEMERIS_TYPE":0,"CLASSIFICATION_TYPE":"U","NORAD_CAT_ID":57467,"ELEMENT_SET_NO":999,"REV_AT_EPOCH":14505,"BSTAR":-0.00015913035,"MEAN_MOTION_DOT":-4.529e-5,"MEAN_MOTION_DDOT":0}]
